MALLIGYONG-1            
1 58400U 23179A   24183.58802392  .00007108  00000+0  32115-3 0  9994
2 58400  97.4028  70.1929 0003418 119.4286 240.7292 15.21256413 33916
